start=new Date('2022-06-14T00:00:00.000Z').valueOf();
sats=[{"COUNTRY_CODE":"US","TLE_LINE2":"2 49421  53.2181 237.7948 0002105  35.3592 324.7539 15.08848217 32526","OBJECT_TYPE":"PAYLOAD","ELEMENT_SET_NO":"999","DECAY_DATE":null,"REF_FRAME":"TEME","SITE":"AFETR","EPHEMERIS_TYPE":"0","PERIOD":"95.437","TIME_SYSTEM":"UTC","MEAN_MOTION_DOT":"0.00003258","LAUNCH_DATE":"2021-11-13","OBJECT_ID":"2021-104P","INCLINATION":"53.2181","MEAN_MOTION_DDOT":"0.0000000000000","NORAD_CAT_ID":"49421","FILE":"3494620","SEMIMAJOR_AXIS":"6917.855","MEAN_ELEMENT_THEORY":"SGP4","GP_ID":"206061018","BSTAR":"0.00022264000000","CENTER_NAME":"EARTH","MEAN_MOTION":"15.08848217","ARG_OF_PERICENTER":"35.3592","REV_AT_EPOCH":"3252","CLASSIFICATION_TYPE":"U","ECCENTRICITY":"0.00021050","MEAN_ANOMALY":"324.7539","PERIAPSIS":"538.264","EPOCH":"2022-06-13T11:28:42.782880","TLE_LINE1":"1 49421U 21104P   22164.47827295  .00003258  00000-0  22264-3 0  9994","RCS_SIZE":"LARGE","RA_OF_ASC_NODE":"237.7948","APOAPSIS":"541.176","OBJECT_NAME":"STARLINK-3112"},{"MEAN_ANOMALY":"330.5418","PERIAPSIS":"537.797","ECCENTRICITY":"0.00027850","CLASSIFICATION_TYPE":"U","OBJECT_NAME":"STARLINK-3161","APOAPSIS":"541.650","RA_OF_ASC_NODE":"237.7454","TLE_LINE1":"1 49422U 21104Q   22164.48931130 -.00000098  00000-0  11989-4 0  9993","RCS_SIZE":"LARGE","EPOCH":"2022-06-13T11:44:36.496320","MEAN_MOTION":"15.08847278","CENTER_NAME":"EARTH","BSTAR":"0.00001198900000","MEAN_ELEMENT_THEORY":"SGP4","GP_ID":"206061270","REV_AT_EPOCH":"3252","ARG_OF_PERICENTER":"29.5732","LAUNCH_DATE":"2021-11-13","MEAN_MOTION_DOT":"-0.00000098","TIME_SYSTEM":"UTC","PERIOD":"95.437","SEMIMAJOR_AXIS":"6917.858","NORAD_CAT_ID":"49422","FILE":"3494620","MEAN_MOTION_DDOT":"0.0000000000000","OBJECT_ID":"2021-104Q","INCLINATION":"53.2185","ELEMENT_SET_NO":"999","TLE_LINE2":"2 49422  53.2185 237.7454 0002785  29.5732 330.5418 15.08847278 32525","OBJECT_TYPE":"PAYLOAD","COUNTRY_CODE":"US","EPHEMERIS_TYPE":"0","SITE":"AFETR","REF_FRAME":"TEME","DECAY_DATE":null},{"SEMIMAJOR_AXIS":"6917.892","NORAD_CAT_ID":"49423","FILE":"3494620","MEAN_MOTION_DDOT":"0.0000000000000","OBJECT_ID":"2021-104R","INCLINATION":"53.2200","LAUNCH_DATE":"2021-11-13","MEAN_MOTION_DOT":"0.00000295","TIME_SYSTEM":"UTC","PERIOD":"95.438","EPHEMERIS_TYPE":"0","SITE":"AFETR","REF_FRAME":"TEME","DECAY_DATE":null,"ELEMENT_SET_NO":"999","TLE_LINE2":"2 49423  53.2200 237.8276 0002513  28.2029 331.9099 15.08836206 32520","OBJECT_TYPE":"PAYLOAD","COUNTRY_CODE":"US","OBJECT_NAME":"STARLINK-3149","APOAPSIS":"541.495","RA_OF_ASC_NODE":"237.8276","TLE_LINE1":"1 49423U 21104R   22164.47091940  .00000295  00000-0  36628-4 0  9994","RCS_SIZE":"LARGE","EPOCH":"2022-06-13T11:18:07.436160","PERIAPSIS":"538.019","MEAN_ANOMALY":"331.9099","ECCENTRICITY":"0.00025130","CLASSIFICATION_TYPE":"U","REV_AT_EPOCH":"3252","ARG_OF_PERICENTER":"28.2029","MEAN_MOTION":"15.08836206","CENTER_NAME":"EARTH","BSTAR":"0.00003662800000","GP_ID":"206062020","MEAN_ELEMENT_THEORY":"SGP4"},{"RCS_SIZE":"LARGE","TLE_LINE1":"1 49424U 21104S   22164.48195639  .00001496  00000-0  11206-3 0  9994","EPOCH":"2022-06-13T11:34:01.032096","RA_OF_ASC_NODE":"237.7771","APOAPSIS":"541.705","OBJECT_NAME":"STARLINK-3135","CLASSIFICATION_TYPE":"U","ECCENTRICITY":"0.00028410","PERIAPSIS":"537.774","MEAN_ANOMALY":"323.9548","ARG_OF_PERICENTER":"36.1636","REV_AT_EPOCH":"3252","MEAN_ELEMENT_THEORY":"SGP4","GP_ID":"206060768","BSTAR":"0.00011206000000","CENTER_NAME":"EARTH","MEAN_MOTION":"15.08841893","MEAN_MOTION_DDOT":"0.0000000000000","OBJECT_ID":"2021-104S","INCLINATION":"53.2184","SEMIMAJOR_AXIS":"6917.875","FILE":"3494620","NORAD_CAT_ID":"49424","PERIOD":"95.437","MEAN_MOTION_DOT":"0.00001496","TIME_SYSTEM":"UTC","LAUNCH_DATE":"2021-11-13","DECAY_DATE":null,"REF_FRAME":"TEME","EPHEMERIS_TYPE":"0","SITE":"AFETR","COUNTRY_CODE":"US","ELEMENT_SET_NO":"999","TLE_LINE2":"2 49424  53.2184 237.7771 0002841  36.1636 323.9548 15.08841893 32525","OBJECT_TYPE":"PAYLOAD"},{"EPHEMERIS_TYPE":"0","SITE":"AFETR","REF_FRAME":"TEME","DECAY_DATE":null,"ELEMENT_SET_NO":"999","TLE_LINE2":"2 49425  53.2181 237.8440 0002205  40.8488 319.2669 15.08841583 32537","OBJECT_TYPE":"PAYLOAD","COUNTRY_CODE":"US","SEMIMAJOR_AXIS":"6917.876","FILE":"3494620","NORAD_CAT_ID":"49425","MEAN_MOTION_DDOT":"0.0000000000000","OBJECT_ID":"2021-104T","INCLINATION":"53.2181","LAUNCH_DATE":"2021-11-13","MEAN_MOTION_DOT":"0.00002055","TIME_SYSTEM":"UTC","PERIOD":"95.437","REV_AT_EPOCH":"3253","ARG_OF_PERICENTER":"40.8488","MEAN_MOTION":"15.08841583","CENTER_NAME":"EARTH","BSTAR":"0.00014715000000","MEAN_ELEMENT_THEORY":"SGP4","GP_ID":"206060519","OBJECT_NAME":"STARLINK-3139","APOAPSIS":"541.266","RA_OF_ASC_NODE":"237.8440","TLE_LINE1":"1 49425U 21104T   22164.46723894  .00002055  00000-0  14715-3 0  9993","RCS_SIZE":"LARGE","EPOCH":"2022-06-13T11:12:49.444416","PERIAPSIS":"538.215","MEAN_ANOMALY":"319.2669","ECCENTRICITY":"0.00022050","CLASSIFICATION_TYPE":"U"},{"MEAN_ELEMENT_THEORY":"SGP4","GP_ID":"206061770","BSTAR":"0.00006792000000","CENTER_NAME":"EARTH","MEAN_MOTION":"15.08845910","ARG_OF_PERICENTER":"26.8116","REV_AT_EPOCH":"3252","CLASSIFICATION_TYPE":"U","ECCENTRICITY":"0.00025160","MEAN_ANOMALY":"333.3006","PERIAPSIS":"537.987","TLE_LINE1":"1 49426U 21104U   22164.47459233  .00000793  00000-0  67920-4 0  9992","RCS_SIZE":"LARGE","EPOCH":"2022-06-13T11:23:24.777312","RA_OF_ASC_NODE":"237.8119","APOAPSIS":"541.468","OBJECT_NAME":"STARLINK-3114","COUNTRY_CODE":"US","ELEMENT_SET_NO":"999","TLE_LINE2":"2 49426  53.2191 237.8119 0002516  26.8116 333.3006 15.08845910 32528","OBJECT_TYPE":"PAYLOAD","DECAY_DATE":null,"REF_FRAME":"TEME","EPHEMERIS_TYPE":"0","SITE":"AFETR","PERIOD":"95.437","MEAN_MOTION_DOT":"0.00000793","TIME_SYSTEM":"UTC","LAUNCH_DATE":"2021-11-13","MEAN_MOTION_DDOT":"0.0000000000000","INCLINATION":"53.2191","OBJECT_ID":"2021-104U","SEMIMAJOR_AXIS":"6917.862","FILE":"3494620","NORAD_CAT_ID":"49426"},{"PERIAPSIS":"538.081","MEAN_ANOMALY":"325.4324","CLASSIFICATION_TYPE":"U","ECCENTRICITY":"0.00023440","APOAPSIS":"541.324","OBJECT_NAME":"STARLINK-3131","EPOCH":"2022-06-13T11:07:31.024128","TLE_LINE1":"1 49427U 21104V   22164.46355352  .00003439  00000-0  23400-3 0  9993","RCS_SIZE":"LARGE","RA_OF_ASC_NODE":"237.8621","CENTER_NAME":"EARTH","MEAN_MOTION":"15.08854132","GP_ID":"206061521","MEAN_ELEMENT_THEORY":"SGP4","BSTAR":"0.00023400000000","REV_AT_EPOCH":"3253","ARG_OF_PERICENTER":"34.6820","LAUNCH_DATE":"2021-11-13","PERIOD":"95.437","TIME_SYSTEM":"UTC","MEAN_MOTION_DOT":"0.00003439","NORAD_CAT_ID":"49427","FILE":"3494620","SEMIMAJOR_AXIS":"6917.837","INCLINATION":"53.2189","OBJECT_ID":"2021-104V","MEAN_MOTION_DDOT":"0.0000000000000","TLE_LINE2":"2 49427  53.2189 237.8621 0002344  34.6820 325.4324 15.08854132 32534","OBJECT_TYPE":"PAYLOAD","ELEMENT_SET_NO":"999","COUNTRY_CODE":"US","SITE":"AFETR","EPHEMERIS_TYPE":"0","DECAY_DATE":null,"REF_FRAME":"TEME"},{"REV_AT_EPOCH":"3360","ARG_OF_PERICENTER":"32.9229","GP_ID":"206068496","MEAN_ELEMENT_THEORY":"SGP4","BSTAR":"0.00012484000000","CENTER_NAME":"EARTH","MEAN_MOTION":"15.08841079","EPOCH":"2022-06-13T10:53:00.052512","TLE_LINE1":"1 49428U 21104W   22164.45347283  .00001699  00000-0  12484-3 0  9993","RCS_SIZE":"LARGE","RA_OF_ASC_NODE":"237.9144","APOAPSIS":"541.440","OBJECT_NAME":"STARLINK-3121","CLASSIFICATION_TYPE":"U","ECCENTRICITY":"0.00024550","PERIAPSIS":"538.044","MEAN_ANOMALY":"327.1915","DECAY_DATE":null,"REF_FRAME":"TEME","SITE":"AFETR","EPHEMERIS_TYPE":"0","COUNTRY_CODE":"US","TLE_LINE2":"2 49428  53.2164 237.9144 0002455  32.9229 327.1915 15.08841079 33606","OBJECT_TYPE":"PAYLOAD","ELEMENT_SET_NO":"999","OBJECT_ID":"2021-104W","INCLINATION":"53.2164","MEAN_MOTION_DDOT":"0.0000000000000","FILE":"3494922","NORAD_CAT_ID":"49428","SEMIMAJOR_AXIS":"6917.877","PERIOD":"95.437","TIME_SYSTEM":"UTC","MEAN_MOTION_DOT":"0.00001699","LAUNCH_DATE":"2021-11-13"},{"CLASSIFICATION_TYPE":"U","ECCENTRICITY":"0.00024080","PERIAPSIS":"538.044","MEAN_ANOMALY":"327.1598","EPOCH":"2022-06-13T11:02:12.935616","TLE_LINE1":"1 49430U 21104Y   22164.45987194  .00001580  00000-0  11732-3 0  9991","RCS_SIZE":"LARGE","RA_OF_ASC_NODE":"237.8816","APOAPSIS":"541.376","OBJECT_NAME":"STARLINK-3138","GP_ID":"206061019","MEAN_ELEMENT_THEORY":"SGP4","BSTAR":"0.00011732000000","CENTER_NAME":"EARTH","MEAN_MOTION":"15.08851520","REV_AT_EPOCH":"3253","ARG_OF_PERICENTER":"32.9544","PERIOD":"95.437","TIME_SYSTEM":"UTC","MEAN_MOTION_DOT":"0.00001580","LAUNCH_DATE":"2021-11-13","OBJECT_ID":"2021-104Y","INCLINATION":"53.2182","MEAN_MOTION_DDOT":"0.0000000000000","FILE":"3494620","NORAD_CAT_ID":"49430","SEMIMAJOR_AXIS":"6917.845","COUNTRY_CODE":"US","OBJECT_TYPE":"PAYLOAD","TLE_LINE2":"2 49430  53.2182 237.8816 0002408  32.9544 327.1598 15.08851520 32532","ELEMENT_SET_NO":"999","DECAY_DATE":null,"REF_FRAME":"TEME","SITE":"AFETR","EPHEMERIS_TYPE":"0"},{"REF_FRAME":"TEME","DECAY_DATE":null,"EPHEMERIS_TYPE":"0","SITE":"AFETR","COUNTRY_CODE":"US","ELEMENT_SET_NO":"999","OBJECT_TYPE":"PAYLOAD","TLE_LINE2":"2 49431  53.2171 237.7488 0002678  31.2168 328.8983 15.08849032 32539","MEAN_MOTION_DDOT":"0.0000000000000","OBJECT_ID":"2021-104Z","INCLINATION":"53.2171","SEMIMAJOR_AXIS":"6917.853","FILE":"3494620","NORAD_CAT_ID":"49431","MEAN_MOTION_DOT":"-0.00000406","TIME_SYSTEM":"UTC","PERIOD":"95.437","LAUNCH_DATE":"2021-11-13","ARG_OF_PERICENTER":"31.2168","REV_AT_EPOCH":"3253","BSTAR":"-0.00000736940000","MEAN_ELEMENT_THEORY":"SGP4","GP_ID":"206061271","MEAN_MOTION":"15.08849032","CENTER_NAME":"EARTH","RA_OF_ASC_NODE":"237.7488","TLE_LINE1":"1 49431U 21104Z   22164.48658655 -.00000406  00000-0 -73694-5 0  9997","RCS_SIZE":"LARGE","EPOCH":"2022-06-13T11:40:41.077920","OBJECT_NAME":"STARLINK-3153","APOAPSIS":"541.570","ECCENTRICITY":"0.00026780","CLASSIFICATION_TYPE":"U","PERIAPSIS":"537.865","MEAN_ANOMALY":"328.8983"}];
